ONEWEB-0710             
1 55173U 23004AK  23295.18182553  .00000095  00000+0  21276-3 0  9998
2 55173  87.9248 198.4794 0001614  75.5378 284.5932 13.17652418 39979
ONEWEB-0711             
1 55174U 23004AL  23294.82507164  .00000443  00000+0  12155-2 0  9990
2 55174  87.9006 213.6493 0002068 102.5551 257.5809 13.11416651 38788
ONEWEB-0713             
1 55175U 23004AM  23295.14809794  .00000352  00000+0  95712-3 0  9991
2 55175  87.9010 213.5930 0002097  85.9700 274.1667 13.11412785 38816
ONEWEB-0715             
1 55176U 23004AN  23294.83803353  .00000367  00000+0  99962-3 0  9999
2 55176  87.8993 213.6644 0002155  81.5600 278.5772 13.11412524 38811
ONEWEB-0716             
1 55177U 23004AP  23294.79582514  .00000077  00000+0  16590-3 0  9992
2 55177  87.9230 198.5558 0002097  66.0473 294.0878 13.17650972 39923
ONEWEB-0717             
1 55178U 23004AQ  23294.47519937 -.00000136  00000+0 -38440-3 0  9993
2 55178  87.9251 198.5731 0001512 111.2308 248.8985 13.17647708 39931
ONEWEB-0719             
1 55179U 23004AR  23295.16918479  .00000109  00000+0  24685-3 0  9999
2 55179  87.9249 198.4233 0002131  79.8229 280.3143 13.17650440 39972
ONEWEB-0530             
1 55796U 23029A   23295.00001157 -.00009238  00000+0 -18647-1 0  9993
2 55796  87.9642 107.4148 0003321  89.0122 354.0079 13.34093979  5355
